{"type": "FeatureCollection", "features": [{"type": "Feature", "properties": {"kind": "area", "name": "Area della battaglia di Waterloo", "period": "ottocento", "demo": true}, "geometry": {"type": "Polygon", "coordinates": [[[4.38, 50.665], [4.45, 50.665], [4.45, 50.7], [4.38, 50.7], [4.38, 50.665]]]}}, {"type": "Feature", "properties": {"kind": "area", "name": "Area della battaglia di Marengo", "period": "ottocento", "demo": true}, "geometry": {"type": "Polygon", "coordinates": [[[8.63, 44.88], [8.7, 44.88], [8.7, 44.915], [8.63, 44.915], [8.63, 44.88]]]}}, {"type": "Feature", "properties": {"kind": "trincea", "name": "Linea trincerata (esempio)", "period": "wwi", "demo": true}, "geometry": {"type": "LineString", "coordinates": [[13.6, 46.24], [13.62, 46.25], [13.65, 46.255], [13.68, 46.26]]}}]}