{"type": "FeatureCollection", "features": [{"type": "Feature", "properties": {"kind": "citta", "name": "Sibari (Sybaris)", "period": "antica", "approx": true, "note": "Colonia greca distrutta da Crotone nel 510 a.C."}, "geometry": {"type": "Point", "coordinates": [16.4841, 39.7203]}}, {"type": "Feature", "properties": {"kind": "citta", "name": "Veio", "period": "antica", "approx": true, "note": "Città etrusca conquistata da Roma nel 396 a.C."}, "geometry": {"type": "Point", "coordinates": [12.4, 42.0239]}}, {"type": "Feature", "properties": {"kind": "citta", "name": "Spina", "period": "antica", "approx": true, "note": "Porto etrusco sull'Adriatico, oggi lontano dalla costa."}, "geometry": {"type": "Point", "coordinates": [12.17, 44.69]}}, {"type": "Feature", "properties": {"kind": "citta", "name": "Luni", "period": "antica", "approx": true, "note": "Colonia romana progressivamente abbandonata nel Medioevo."}, "geometry": {"type": "Point", "coordinates": [10.0397, 44.0597]}}, {"type": "Feature", "properties": {"kind": "citta", "name": "Cuma", "period": "antica", "approx": true, "note": "Prima colonia greca dell'Occidente."}, "geometry": {"type": "Point", "coordinates": [14.0553, 40.8477]}}, {"type": "Feature", "properties": {"kind": "citta", "name": "Himera", "period": "antica", "approx": true, "note": "Colonia greca distrutta dai Cartaginesi nel 409 a.C."}, "geometry": {"type": "Point", "coordinates": [13.8217, 37.9714]}}, {"type": "Feature", "properties": {"kind": "citta", "name": "Selinunte", "period": "antica", "approx": true, "note": "Colonia greca abbandonata dopo le guerre con Cartagine."}, "geometry": {"type": "Point", "coordinates": [12.8306, 37.5836]}}, {"type": "Feature", "properties": {"kind": "citta", "name": "Pompei", "period": "antica", "approx": true, "note": "Città sepolta dall'eruzione del Vesuvio nel 79 d.C."}, "geometry": {"type": "Point", "coordinates": [14.4869, 40.7509]}}, {"type": "Feature", "properties": {"kind": "citta", "name": "Craco", "period": "altro", "approx": true, "note": "Borgo abbandonato nel Novecento per frane."}, "geometry": {"type": "Point", "coordinates": [16.4411, 40.3797]}}, {"type": "Feature", "properties": {"kind": "citta", "name": "Pentedattilo", "period": "altro", "approx": true, "note": "Borgo calabrese spopolato nel Novecento."}, "geometry": {"type": "Point", "coordinates": [15.8164, 37.9606]}}, {"type": "Feature", "properties": {"kind": "citta", "name": "Curon Venosta (vecchio)", "period": "altro", "approx": true, "note": "Villaggio sommerso dal lago di Resia nel 1950; resta il campanile."}, "geometry": {"type": "Point", "coordinates": [10.5136, 46.8267]}}, {"type": "Feature", "properties": {"kind": "citta", "name": "Poggioreale (vecchia)", "period": "altro", "approx": true, "note": "Paese distrutto dal terremoto del Belice nel 1968."}, "geometry": {"type": "Point", "coordinates": [12.9906, 37.7219]}}]}